NORAD_CAT_ID,OBJECT_NAME,OBJECT_TYPE,EPOCH,MEAN_MOTION,ECCENTRICITY,INCLINATION,RA_OF_ASC_NODE,ARG_OF_PERICENTER,MEAN_ANOMALY,BSTAR,MEAN_MOTION_DOT,MEAN_MOTION_DDOT,TLE_LINE0,TLE_LINE1,TLE_LINE2,SEMIMAJOR_AXIS,PERIOD,APOGEE,PERIGEE,DECAYED
49427.0,STARLINK-3131,PAYLOAD,2023-08-25 18:36:07,15.08838536,0.0001269,53.2177,70.2115,93.952,266.1617,3.7883e-05,3.15e-06,0.0,0 STARLINK-3131,1 49427U 21104V   23237.77508474  .00000315  00000-0  37883-4 0  9995,2 49427  53.2177  70.2115 0001269  93.9520 266.1617 15.08838536 99795,6917.885,95.438,540.628,538.872,0.0
49427.0,STARLINK-3131,PAYLOAD,2023-08-25 23:22:16,15.08839664,0.0001295,53.2177,69.3189,96.4884,263.6255,5.0988e-05,5.24e-06,0.0,0 STARLINK-3131,1 49427U 21104V   23237.97380377  .00000524  00000-0  50988-4 0  9990,2 49427  53.2177  69.3189 0001295  96.4884 263.6255 15.08839664 98731,6917.881,95.438,540.642,538.851,0.0
49427.0,STARLINK-3131,PAYLOAD,2023-08-26 20:02:17,15.08839121,0.0001318,53.2182,65.4525,83.516,276.5982,0.00010548,1.391e-05,0.0,0 STARLINK-3131,1 49427U 21104V   23238.83492459  .00001391  00000-0  10548-3 0  9991,2 49427  53.2182  65.4525 0001318  83.5160 276.5982 15.08839121 98860,6917.883,95.438,540.66,538.836,0.0
49427.0,STARLINK-3131,PAYLOAD,2023-08-27 19:53:04,15.08844384,0.0001237,53.2176,60.9945,87.9138,272.1995,5.9072e-05,6.52e-06,0.0,0 STARLINK-3131,1 49427U 21104V   23239.82852361  .00000652  00000-0  59072-4 0  9998,2 49427  53.2176  60.9945 0001237  87.9138 272.1995 15.08844384 99013,6917.867,95.437,540.588,538.876,0.0
49427.0,STARLINK-3131,PAYLOAD,2023-08-28 05:25:23,15.08829407,0.0001243,53.2173,59.212,90.1286,269.9848,0.0001304,1.787e-05,0.0,0 STARLINK-3131,1 49427U 21104V   23240.22597213  .00001787  00000-0  13040-3 0  9990,2 49427  53.2173  59.2120 0001243  90.1286 269.9848 15.08829407100162,6917.913,95.438,540.638,538.918,0.0
49427.0,STARLINK-3131,PAYLOAD,2023-08-28 18:08:29,15.08835979,0.0001215,53.2173,56.8334,81.4694,278.6436,2.5202e-05,1.13e-06,0.0,0 STARLINK-3131,1 49427U 21104V   23240.75589132  .00000113  00000-0  25202-4 0  9995,2 49427  53.2173  56.8334 0001215  81.4694 278.6436 15.08835979 99154,6917.893,95.438,540.598,538.917,0.0
49427.0,STARLINK-3131,PAYLOAD,2023-08-29 16:23:52,15.08844549,0.0001264,53.2174,52.67,83.3499,276.7637,6.6516e-05,7.71e-06,0.0,0 STARLINK-3131,1 49427U 21104V   23241.68324456  .00000771  00000-0  66516-4 0  9997,2 49427  53.2174  52.6700 0001264  83.3499 276.7637 15.08844549100387,6917.866,95.437,540.606,538.857,0.0
49427.0,STARLINK-3131,PAYLOAD,2023-08-29 17:59:15,15.08845482,0.0001269,53.2173,52.3726,83.3858,276.7278,7.1649e-05,8.53e-06,0.0,0 STARLINK-3131,1 49427U 21104V   23241.74948366  .00000853  00000-0  71649-4 0  9990,2 49427  53.2173  52.3726 0001269  83.3858 276.7278 15.08845482 99302,6917.864,95.437,540.607,538.851,0.0
49427.0,STARLINK-3131,PAYLOAD,2023-08-30 16:14:39,15.08837059,0.0001297,53.2178,48.2082,91.3321,268.7819,4.8586e-05,4.85e-06,0.0,0 STARLINK-3131,1 49427U 21104V   23242.67684867  .00000485  00000-0  48586-4 0  9991,2 49427  53.2178  48.2082 0001297  91.3321 268.7819 15.08837059100532,6917.889,95.438,540.652,538.857,0.0
49427.0,STARLINK-3131,PAYLOAD,2023-08-30 17:50:02,15.08838231,0.0001164,53.2175,47.9116,90.4719,269.6407,6.0706e-05,6.78e-06,0.0,0 STARLINK-3131,1 49427U 21104V   23242.74308740  .00000678  00000-0  60706-4 0  9994,2 49427  53.2175  47.9116 0001164  90.4719 269.6407 15.08838231 99451,6917.886,95.438,540.556,538.946,0.0
49427.0,STARLINK-3131,PAYLOAD,2023-08-31 14:30:03,15.08839137,0.0001197,53.2182,44.0453,90.3055,269.8075,-3.1932e-05,-7.96e-06,0.0,0 STARLINK-3131,1 49427U 21104V   23243.60421062 -.00000796  00000-0 -31932-4 0  9995,2 49427  53.2182  44.0453 0001197  90.3055 269.8075 15.08839137 99582,6917.883,95.438,540.576,538.92,0.0
49427.0,STARLINK-3131,PAYLOAD,2023-09-01 11:10:04,15.08837598,0.0001063,53.2179,40.1822,78.4297,281.6815,4.541e-05,4.35e-06,0.0,0 STARLINK-3131,1 49427U 21104V   23244.46532974  .00000435  00000-0  45410-4 0  9999,2 49427  53.2179  40.1822 0001063  78.4297 281.6815 15.08837598100803,6917.888,95.438,540.488,539.017,0.0
49427.0,STARLINK-3131,PAYLOAD,2023-09-01 12:45:27,15.08839183,0.0001279,53.2169,39.8842,91.0854,269.0285,6.4098e-05,7.32e-06,0.0,0 STARLINK-3131,1 49427U 21104V   23244.53156753  .00000732  00000-0  64098-4 0  9997,2 49427  53.2169  39.8842 0001279  91.0854 269.0285 15.08839183 99729,6917.883,95.438,540.633,538.863,0.0
49427.0,STARLINK-3131,PAYLOAD,2023-09-01 17:31:36,15.08844414,9.6e-05,53.2186,38.9931,79.0597,281.0503,0.00010495,1.383e-05,0.0,0 STARLINK-3131,1 49427U 21104V   23244.73028260  .00001383  00000-0  10495-3 0  9994,2 49427  53.2186  38.9931 0000960  79.0597 281.0503 15.08844414100849,6917.867,95.437,540.396,539.068,0.0
49427.0,STARLINK-3131,PAYLOAD,2023-09-02 11:00:52,15.08824451,0.0001175,53.2193,35.7174,79.988,280.1245,-5.9087e-05,-1.228e-05,0.0,0 STARLINK-3131,1 49427U 21104V   23245.45894065 -.00001228  00000-0 -59087-4 0  9999,2 49427  53.2193  35.7174 0001175  79.9880 280.1245 15.08824451100958,6917.928,95.439,540.606,538.98,0.0
49427.0,STARLINK-3131,PAYLOAD,2023-09-02 15:47:01,15.08831043,0.000127,53.2195,34.8274,77.4074,282.706,-2.2587e-05,-6.47e-06,0.0,0 STARLINK-3131,1 49427U 21104V   23245.65765716 -.00000647  00000-0 -22587-4 0  9990,2 49427  53.2195  34.8274 0001270  77.4074 282.7060 15.08831043100986,6917.908,95.438,540.651,538.894,0.0
49427.0,STARLINK-3131,PAYLOAD,2023-09-02 20:33:10,15.08836648,0.0001312,53.2201,33.9333,79.3336,280.7804,2.8894e-05,1.72e-06,0.0,0 STARLINK-3131,1 49427U 21104V   23245.85637286  .00000172  00000-0  28894-4 0  9990,2 49427  53.2201  33.9333 0001312  79.3336 280.7804 15.08836648 99920,6917.891,95.438,540.663,538.848,0.0
49427.0,STARLINK-3131,PAYLOAD,2023-09-03 10:51:38,15.08848603,0.0001363,53.2198,31.2574,78.0279,282.0866,9.4558e-06,-1.37e-06,0.0,0 STARLINK-3131,1 49427U 21104V   23246.45252720 -.00000137  00000-0  94558-5 0  9996,2 49427  53.2198  31.2574 0001363  78.0279 282.0866 15.08848603101102,6917.854,95.437,540.662,538.776,0.0
49427.0,STARLINK-3131,PAYLOAD,2023-09-04 09:07:02,15.08831478,0.0001832,53.2176,27.0958,76.8815,283.2382,0.00014776,2.064e-05,0.0,0 STARLINK-3131,1 49427U 21104V   23247.37989400  .00002064  00000-0  14776-3 0  9992,2 49427  53.2176  27.0958 0001832  76.8815 283.2382 15.08831478101243,6917.906,95.438,541.039,538.504,0.0
49427.0,STARLINK-3131,PAYLOAD,2023-09-04 12:17:49,15.08823449,0.0001748,53.2176,26.4994,77.0318,283.0869,8.4274e-05,1.053e-05,0.0,0 STARLINK-3131,1 49427U 21104V   23247.51238124  .00001053  00000-0  84274-4 0  9996,2 49427  53.2176  26.4994 0001748  77.0318 283.0869 15.08823449100171,6917.931,95.439,541.005,538.587,0.0
49427.0,STARLINK-3131,PAYLOAD,2023-09-04 18:39:24,15.08804314,0.000123,53.2192,25.311,90.2648,269.8485,-0.00019428,-3.375e-05,0.0,0 STARLINK-3131,1 49427U 21104V   23247.77736378 -.00003375  00000-0 -19428-3 0  9997,2 49427  53.2192  25.3110 0001230  90.2648 269.8485 15.08804314101308,6917.989,95.44,540.705,539.004,0.0
49427.0,STARLINK-3131,PAYLOAD,2023-09-05 02:36:18,15.08825003,8.68e-05,53.2193,23.824,108.4359,251.6728,-4.779e-05,-1.048e-05,0.0,0 STARLINK-3131,1 49427U 21104V   23248.10854898 -.00001048  00000-0 -47790-4 0  9992,2 49427  53.2193  23.8240 0000868 108.4359 251.6728 15.08825003101355,6917.926,95.439,540.392,539.191,0.0
49427.0,STARLINK-3131,PAYLOAD,2023-09-06 02:27:03,15.08844622,5.72e-05,53.2187,19.365,106.6075,253.4979,0.00021598,3.152e-05,0.0,0 STARLINK-3131,1 49427U 21104V   23249.10212453  .00003152  00000-0  21598-3 0  9991,2 49427  53.2187  19.3650 0000572 106.6075 253.4979 15.08844622101503,6917.866,95.437,540.127,539.336,0.0
49427.0,STARLINK-3131,PAYLOAD,2023-09-06 19:56:17,15.08852928,0.0001057,53.2197,16.094,94.5348,265.5764,0.00015701,2.213e-05,0.0,0 STARLINK-3131,1 49427U 21104V   23249.83076222  .00002213  00000-0  15701-3 0  9999,2 49427  53.2197  16.0940 0001057  94.5348 265.5764 15.08852928100522,6917.841,95.437,540.437,538.975,0.0
49427.0,STARLINK-3131,PAYLOAD,2023-09-07 08:39:24,15.08839248,0.0001014,53.2216,13.7172,89.9141,270.1967,-0.00011923,-2.185e-05,0.0,0 STARLINK-3131,1 49427U 21104V   23250.36070267 -.00002185  00000-0 -11923-3 0  9994,2 49427  53.2216  13.7172 0001014  89.9141 270.1967 15.08839248101693,6917.883,95.438,540.449,539.046,0.0
49427.0,STARLINK-3131,PAYLOAD,2023-09-07 18:11:42,15.08847636,0.0001611,53.2176,11.9338,89.0877,271.03,-6.8883e-05,-1.384e-05,0.0,0 STARLINK-3131,1 49427U 21104V   23250.75813411 -.00001384  00000-0 -68883-4 0  9991,2 49427  53.2176  11.9338 0001611  89.0877 271.0300 15.08847636101750,6917.857,95.437,540.837,538.608,0.0
49427.0,STARLINK-3131,PAYLOAD,2023-09-08 06:54:48,15.08840766,0.000173,53.2151,9.5528,94.8578,265.2612,-5.1555e-05,-1.109e-05,0.0,0 STARLINK-3131,1 49427U 21104V   23251.28805707 -.00001109  00000-0 -51555-4 0  9992,2 49427  53.2151   9.5528 0001730  94.8578 265.2612 15.08840766101838,6917.878,95.438,540.94,538.546,0.0
49427.0,STARLINK-3131,PAYLOAD,2023-09-08 13:16:20,15.08837189,0.0001072,53.2195,8.3637,97.1409,262.9705,-7.2291e-05,-1.438e-05,0.0,0 STARLINK-3131,1 49427U 21104V   23251.55301884 -.00001438  00000-0 -72291-4 0  9994,2 49427  53.2195   8.3637 0001072  97.1409 262.9705 15.08837189100787,6917.889,95.438,540.496,539.012,0.0
49427.0,STARLINK-3131,PAYLOAD,2023-09-08 14:51:43,15.08843392,0.0001557,53.2198,8.0663,81.9829,278.1339,-0.00012004,-2.198e-05,0.0,0 STARLINK-3131,1 49427U 21104V   23251.61925897 -.00002198  00000-0 -12004-3 0  9996,2 49427  53.2198   8.0663 0001557  81.9829 278.1339 15.08843392100797,6917.87,95.437,540.812,538.658,0.0
49427.0,STARLINK-3131,PAYLOAD,2023-09-09 08:20:58,15.08829949,0.0001207,53.2198,4.7955,97.3082,262.8047,7.6748e-05,9.34e-06,0.0,0 STARLINK-3131,1 49427U 21104V   23252.34790259  .00000934  00000-0  76748-4 0  9999,2 49427  53.2198   4.7955 0001207  97.3082 262.8047 15.08829949101999,6917.911,95.438,540.611,538.941,0.0
